[{"OBJECT_NAME":"FENGYUN 1C DEB","OBJECT_ID":"1999-025DZQ","EPOCH":"2023-09-12T06:18:33.336576","MEAN_MOTION":14.15895025,"ECCENTRICITY":0.0110776,"INCLINATION":99.1443,"RA_OF_ASC_NODE":264.5574,"ARG_OF_PERICENTER":135.8812,"MEAN_ANOMALY":225.1264,"EPHEMERIS_TYPE":0,"CLASSIFICATION_TYPE":"U","NORAD_CAT_ID":36694,"ELEMENT_SET_NO":999,"REV_AT_EPOCH":51991,"BSTAR":0.00090024,"MEAN_MOTION_DOT":1.835e-5,"MEAN_MOTION_DDOT":0},{"OBJECT_NAME":"FENGYUN 1C DEB","OBJECT_ID":"1999-025DZR","EPOCH":"2023-09-13T19:34:16.059360","MEAN_MOTION":14.39595103,"ECCENTRICITY":0.0270951,"INCLINATION":98.1679,"RA_OF_ASC_NODE":259.6443,"ARG_OF_PERICENTER":100.7861,"MEAN_ANOMALY":262.395,"EPHEMERIS_TYPE":0,"CLASSIFICATION_TYPE":"U","NORAD_CAT_ID":36695,"ELEMENT_SET_NO":999,"REV_AT_EPOCH":77739,"BSTAR":0.00038458,"MEAN_MOTION_DOT":1.803e-5,"MEAN_MOTION_DDOT":0},{"OBJECT_NAME":"FENGYUN 1C DEB","OBJECT_ID":"1999-025DZS","EPOCH":"2023-09-15T08:56:43.367424","MEAN_MOTION":14.22997657,"ECCENTRICITY":0.0025587,"INCLINATION":98.9604,"RA_OF_ASC_NODE":228.9523,"ARG_OF_PERICENTER":191.952,"MEAN_ANOMALY":168.1053,"EPHEMERIS_TYPE":0,"CLASSIFICATION_TYPE":"U","NORAD_CAT_ID":36696,"ELEMENT_SET_NO":999,"REV_AT_EPOCH":52676,"BSTAR":0.0026044,"MEAN_MOTION_DOT":5.843e-5,"MEAN_MOTION_DDOT":0},{"OBJECT_NAME":"FENGYUN 1C DEB","OBJECT_ID":"1999-025DZT","EPOCH":"2023-09-15T09:30:10.167264","MEAN_MOTION":14.97191384,"ECCENTRICITY":0.0127241,"INCLINATION":98.8011,"RA_OF_ASC_NODE":111.7517,"ARG_OF_PERICENTER":328.7403,"MEAN_ANOMALY":30.6292,"EPHEMERIS_TYPE":0,"CLASSIFICATION_TYPE":"U","NORAD_CAT_ID":36697,"ELEMENT_SET_NO":999,"REV_AT_EPOCH":77425,"BSTAR":0.0013012,"MEAN_MOTION_DOT":0.00017716,"MEAN_MOTION_DDOT":0},{"OBJECT_NAME":"FENGYUN 1C DEB","OBJECT_ID":"1999-025DZV","EPOCH":"2023-09-14T05:54:07.793856","MEAN_MOTION":14.22276543,"ECCENTRICITY":0.009677,"INCLINATION":98.5407,"RA_OF_ASC_NODE":264.2995,"ARG_OF_PERICENTER":359.7832,"MEAN_ANOMALY":0.3288,"EPHEMERIS_TYPE":0,"CLASSIFICATION_TYPE":"U","NORAD_CAT_ID":36699,"ELEMENT_SET_NO":999,"REV_AT_EPOCH":61655,"BSTAR":0.00043789,"MEAN_MOTION_DOT":9.78e-6,"MEAN_MOTION_DDOT":0},{"OBJECT_NAME":"FENGYUN 1C DEB","OBJECT_ID":"1999-025DZX","EPOCH":"2023-09-14T22:38:50.749152","MEAN_MOTION":13.63840144,"ECCENTRICITY":0.0275799,"INCLINATION":102.7499,"RA_OF_ASC_NODE":302.2748,"ARG_OF_PERICENTER":304.4898,"MEAN_ANOMALY":53.0464,"EPHEMERIS_TYPE":0,"CLASSIFICATION_TYPE":"U","NORAD_CAT_ID":36701,"ELEMENT_SET_NO":999,"REV_AT_EPOCH":49932,"BSTAR":0.0022147,"MEAN_MOTION_DOT":2.205e-5,"MEAN_MOTION_DDOT":0},{"OBJECT_NAME":"FENGYUN 1C DEB","OBJECT_ID":"1999-025DZZ","EPOCH":"2023-09-14T22:50:07.294848","MEAN_MOTION":14.07996551,"ECCENTRICITY":0.0115082,"INCLINATION":97.8293,"RA_OF_ASC_NODE":156.394,"ARG_OF_PERICENTER":184.6918,"MEAN_ANOMALY":175.3185,"EPHEMERIS_TYPE":0,"CLASSIFICATION_TYPE":"U","NORAD_CAT_ID":36703,"ELEMENT_SET_NO":999,"REV_AT_EPOCH":46683,"BSTAR":0.0023374,"MEAN_MOTION_DOT":4.189e-5,"MEAN_MOTION_DDOT":0},{"OBJECT_NAME":"FENGYUN 1C DEB","OBJECT_ID":"1999-025EAD","EPOCH":"2023-09-13T22:04:18.200640","MEAN_MOTION":14.12866548,"ECCENTRICITY":0.0050632,"INCLINATION":98.8383,"RA_OF_ASC_NODE":303.6603,"ARG_OF_PERICENTER":301.6159,"MEAN_ANOMALY":58.0078,"EPHEMERIS_TYPE":0,"CLASSIFICATION_TYPE":"U","NORAD_CAT_ID":36707,"ELEMENT_SET_NO":999,"REV_AT_EPOCH":52470,"BSTAR":0.00098684,"MEAN_MOTION_DOT":1.814e-5,"MEAN_MOTION_DDOT":0},{"OBJECT_NAME":"FENGYUN 1C DEB","OBJECT_ID":"1999-025EAG","EPOCH":"2023-09-15T09:41:48.832224","MEAN_MOTION":14.36807396,"ECCENTRICITY":0.0084344,"INCLINATION":98.4651,"RA_OF_ASC_NODE":314.029,"ARG_OF_PERICENTER":133.7187,"MEAN_ANOMALY":227.1025,"EPHEMERIS_TYPE":0,"CLASSIFICATION_TYPE":"U","NORAD_CAT_ID":36710,"ELEMENT_SET_NO":999,"REV_AT_EPOCH":53135,"BSTAR":0.0018114,"MEAN_MOTION_DOT":5.532e-5,"MEAN_MOTION_DDOT":0},{"OBJECT_NAME":"FENGYUN 1C DEB","OBJECT_ID":"1999-025EAH","EPOCH":"2023-09-15T05:08:33.730656","MEAN_MOTION":14.20370519,"ECCENTRICITY":0.0137746,"INCLINATION":100.8151,"RA_OF_ASC_NODE":68.9309,"ARG_OF_PERICENTER":286.3294,"MEAN_ANOMALY":72.2766,"EPHEMERIS_TYPE":0,"CLASSIFICATION_TYPE":"U","NORAD_CAT_ID":36711,"ELEMENT_SET_NO":999,"REV_AT_EPOCH":52591,"BSTAR":0.0027218,"MEAN_MOTION_DOT":6.358e-5,"MEAN_MOTION_DDOT":0},{"OBJECT_NAME":"FENGYUN 1C DEB","OBJECT_ID":"1999-025EAK","EPOCH":"2023-09-15T13:07:40.865664","MEAN_MOTION":14.84555408,"ECCENTRICITY":0.0172818,"INCLINATION":98.4938,"RA_OF_ASC_NODE":112.807,"ARG_OF_PERICENTER":308.5907,"MEAN_ANOMALY":49.9933,"EPHEMERIS_TYPE":0,"CLASSIFICATION_TYPE":"U","NORAD_CAT_ID":36713,"ELEMENT_SET_NO":999,"REV_AT_EPOCH":84572,"BSTAR":0.0013206,"MEAN_MOTION_DOT":0.00014512,"MEAN_MOTION_DDOT":0},{"OBJECT_NAME":"FENGYUN 1C DEB","OBJECT_ID":"1999-025EAN","EPOCH":"2023-09-14T00:36:23.122368","MEAN_MOTION":13.87420599,"ECCENTRICITY":0.0149669,"INCLINATION":99.21,"RA_OF_ASC_NODE":174.9468,"ARG_OF_PERICENTER":276.9358,"MEAN_ANOMALY":81.4795,"EPHEMERIS_TYPE":0,"CLASSIFICATION_TYPE":"U","NORAD_CAT_ID":36716,"ELEMENT_SET_NO":999,"REV_AT_EPOCH":51546,"BSTAR":0.00032596,"MEAN_MOTION_DOT":3.74e-6,"MEAN_MOTION_DDOT":0},{"OBJECT_NAME":"FENGYUN 1C DEB","OBJECT_ID":"1999-025EAR","EPOCH":"2023-09-09T05:01:29.455680","MEAN_MOTION":14.2292672,"ECCENTRICITY":0.0100083,"INCLINATION":98.4598,"RA_OF_ASC_NODE":45.1596,"ARG_OF_PERICENTER":18.48,"MEAN_ANOMALY":341.9972,"EPHEMERIS_TYPE":0,"CLASSIFICATION_TYPE":"U","NORAD_CAT_ID":36719,"ELEMENT_SET_NO":999,"REV_AT_EPOCH":52564,"BSTAR":0.0010722,"MEAN_MOTION_DOT":2.497e-5,"MEAN_MOTION_DDOT":0},{"OBJECT_NAME":"FENGYUN 1C DEB","OBJECT_ID":"1999-025EAW","EPOCH":"2023-09-15T09:09:22.605696","MEAN_MOTION":14.12883154,"ECCENTRICITY":0.0124628,"INCLINATION":99.4635,"RA_OF_ASC_NODE":222.2107,"ARG_OF_PERICENTER":341.5043,"MEAN_ANOMALY":172.403,"EPHEMERIS_TYPE":0,"CLASSIFICATION_TYPE":"U","NORAD_CAT_ID":36724,"ELEMENT_SET_NO":999,"REV_AT_EPOCH":45849,"BSTAR":0.0035262,"MEAN_MOTION_DOT":7.02e-5,"MEAN_MOTION_DDOT":0},{"OBJECT_NAME":"FENGYUN 1C DEB","OBJECT_ID":"1999-025EBB","EPOCH":"2023-09-15T17:03:57.113280","MEAN_MOTION":14.0883827,"ECCENTRICITY":0.004829,"INCLINATION":98.6509,"RA_OF_ASC_NODE":259.2923,"ARG_OF_PERICENTER":58.6815,"MEAN_ANOMALY":301.907,"EPHEMERIS_TYPE":0,"CLASSIFICATION_TYPE":"U","NORAD_CAT_ID":36729,"ELEMENT_SET_NO":999,"REV_AT_EPOCH":75949,"BSTAR":0.00041441,"MEAN_MOTION_DOT":6.82e-6,"MEAN_MOTION_DDOT":0},{"OBJECT_NAME":"FENGYUN 1C DEB","OBJECT_ID":"1999-025EBE","EPOCH":"2023-09-13T06:30:21.674016","MEAN_MOTION":15.08975643,"ECCENTRICITY":0.0093492,"INCLINATION":98.9928,"RA_OF_ASC_NODE":263.2952,"ARG_OF_PERICENTER":62.2113,"MEAN_ANOMALY":298.855,"EPHEMERIS_TYPE":0,"CLASSIFICATION_TYPE":"U","NORAD_CAT_ID":36732,"ELEMENT_SET_NO":999,"REV_AT_EPOCH":79337,"BSTAR":0.0032212,"MEAN_MOTION_DOT":0.00056678,"MEAN_MOTION_DDOT":0}]
