FENGYUN 1C DEB          
1 36694U 99025DZQ 23255.26288584  .00001835  00000+0  90024-3 0  9997
2 36694  99.1443 264.5574 0110776 135.8812 225.1264 14.15895025519910
FENGYUN 1C DEB          
1 36695U 99025DZR 23256.81546365  .00001803  00000+0  38458-3 0  9992
2 36695  98.1679 259.6443 0270951 100.7861 262.3950 14.39595103777391
FENGYUN 1C DEB          
1 36696U 99025DZS 23258.37272416  .00005843  00000+0  26044-2 0  9994
2 36696  98.9604 228.9523 0025587 191.9520 168.1053 14.22997657526765
FENGYUN 1C DEB          
1 36697U 99025DZT 23258.39595101  .00017716  00000+0  13012-2 0  9999
2 36697  98.8011 111.7517 0127241 328.7403  30.6292 14.97191384774251
FENGYUN 1C DEB          
1 36699U 99025DZV 23257.24592354  .00000978  00000+0  43789-3 0  9998
2 36699  98.5407 264.2995 0096770 359.7832   0.3288 14.22276543616551
FENGYUN 1C DEB          
1 36701U 99025DZX 23257.94364293  .00002205  00000+0  22147-2 0  9997
2 36701 102.7499 302.2748 0275799 304.4898  53.0464 13.63840144499325
FENGYUN 1C DEB          
1 36703U 99025DZZ 23257.95147332  .00004189  00000+0  23374-2 0  9999
2 36703  97.8293 156.3940 0115082 184.6918 175.3185 14.07996551466835
FENGYUN 1C DEB          
1 36707U 99025EAD 23256.91965510  .00001814  00000+0  98684-3 0  9993
2 36707  98.8383 303.6603 0050632 301.6159  58.0078 14.12866548524707
FENGYUN 1C DEB          
1 36710U 99025EAG 23258.40403741  .00005532  00000+0  18114-2 0  9996
2 36710  98.4651 314.0290 0084344 133.7187 227.1025 14.36807396531357
FENGYUN 1C DEB          
1 36711U 99025EAH 23258.21427929  .00006358  00000+0  27218-2 0  9992
2 36711 100.8151  68.9309 0137746 286.3294  72.2766 14.20370519525917
FENGYUN 1C DEB          
1 36713U 99025EAK 23258.54700076  .00014512  00000+0  13206-2 0  9990
2 36713  98.4938 112.8070 0172818 308.5907  49.9933 14.84555408845728
FENGYUN 1C DEB          
1 36716U 99025EAN 23257.02526762  .00000374  00000+0  32596-3 0  9998
2 36716  99.2100 174.9468 0149669 276.9358  81.4795 13.87420599515463
FENGYUN 1C DEB          
1 36719U 99025EAR 23252.20936870  .00002497  00000+0  10722-2 0  9995
2 36719  98.4598  45.1596 0100083  18.4800 341.9972 14.22926720525646
FENGYUN 1C DEB          
1 36724U 99025EAW 23258.38151164  .00007020  00000+0  35262-2 0  9994
2 36724  99.4635 222.2107 0124628 341.5043 172.4030 14.12883154458493
FENGYUN 1C DEB          
1 36729U 99025EBB 23258.71107770  .00000682  00000+0  41441-3 0  9994
2 36729  98.6509 259.2923 0048290  58.6815 301.9070 14.08838270759499
FENGYUN 1C DEB          
1 36732U 99025EBE 23256.27108419  .00056678  00000+0  32212-2 0  9999
2 36732  98.9928 263.2952 0093492  62.2113 298.8550 15.08975643793373
